[{"OBJECT_NAME":"STARLINK-1434","OBJECT_ID":"2020-035BH","EPOCH":"2026-03-09T05:47:35.213856","MEAN_MOTION":15.26724568,"ECCENTRICITY":0.00053438,"INCLINATION":53.0547,"RA_OF_ASC_NODE":22.1128,"ARG_OF_PERICENTER":88.04,"MEAN_ANOMALY":272.121,"EPHEMERIS_TYPE":0,"CLASSIFICATION_TYPE":"U","NORAD_CAT_ID":45712,"ELEMENT_SET_NO":999,"REV_AT_EPOCH":31932,"BSTAR":0.0020295208,"MEAN_MOTION_DOT":0.00054112,"MEAN_MOTION_DDOT":0},{"OBJECT_NAME":"STARLINK-34045","OBJECT_ID":"2025-099AD","EPOCH":"2026-03-09T08:05:00.764160","MEAN_MOTION":15.2759687,"ECCENTRICITY":0.00019093,"INCLINATION":43.0012,"RA_OF_ASC_NODE":174.6288,"ARG_OF_PERICENTER":276.8329,"MEAN_ANOMALY":83.2306,"EPHEMERIS_TYPE":0,"CLASSIFICATION_TYPE":"U","NORAD_CAT_ID":63979,"ELEMENT_SET_NO":999,"REV_AT_EPOCH":4723,"BSTAR":0.0010359065,"MEAN_MOTION_DOT":0.00028369,"MEAN_MOTION_DDOT":0}]
