STARLINK-1434           
1 45712U 20035BH  26068.24137979  .00054112  00000+0  20295-2 0  9995
2 45712  53.0547  22.1128 0005343  88.0400 272.1210 15.26724568319325
STARLINK-34045          
1 63979U 25099AD  26068.33681440  .00028369  00000+0  10359-2 0  9997
2 63979  43.0012 174.6288 0001909 276.8329  83.2306 15.27596870 47236
